STARLINK-3145
1 29455C 21104AZ  21325.18877732 -.00816835  00000-0 -26663-2 0  3252
2 29455  53.2175  95.6567 0033505  64.3169 161.6909 15.89734579    16
